BEIDOU 7                
1 37256U 10068A   20216.12343021 -.00000208  00000-0  00000+0 0  9995
2 37256  51.4015 297.7825 0081725 213.0106 322.3795  1.00299084 35290
EUTELSAT KA-SAT 9A      
1 37258U 10069A   20215.71344543  .00000043  00000-0  00000-0 0  9999
2 37258   0.0331 311.6928 0005260 137.9238 127.9577  1.00272279 35310
HISPASAT 30W-5          
1 37264U 10070A   20215.70568144 -.00000234  00000-0  00000-0 0  9995
2 37264   0.0181 118.2841 0006214  19.2516  38.2606  1.00271376 31686
KOREASAT 6              
1 37265U 10070B   20215.79145888 -.00000381  00000-0  00000-0 0  9994
2 37265   0.0131  74.2463 0001420  66.7004 211.8041  1.00272549 35269
BEIDOU 8                
1 37384U 11013A   20216.26680155 -.00000181  00000-0  10000-3 0  9990
2 37384  59.3343  61.1209 0049556 201.3565 262.8610  1.00293066 34182
INTELSAT NEW DAWN       
1 37392U 11016A   20216.22063508  .00000137  00000-0  00000+0 0  9990
2 37392   0.0323 204.3667 0001154 203.0255  17.0878  1.00268465 34022
YAHSAT 1A               
1 37393U 11016B   20215.72208178  .00000083  00000-0  00000-0 0  9990
2 37393   0.0205  95.0779 0002906   6.5325 162.5711  1.00270369 34052
SBIRS GEO-1 (USA 230)   
1 37481U 11019A   20215.72469885 -.00000023  00000-0  00000-0 0  9990
2 37481   2.0137 345.3441 0002260 145.7164 147.7886  1.00272121 33834
TELSTAR 14R             
1 37602U 11021A   20216.48868694 -.00000298  00000-0  00000+0 0  9996
2 37602   0.0234 346.3342 0002263 114.5111 324.5822  1.00271658 34295
GSAT-8                  
1 37605U 11022A   20215.73230920  .00000066  00000-0  00000-0 0  9995
2 37605   0.0270  97.3568 0002359 156.5593  16.5520  1.00270648 33736
ST-2                    
1 37606U 11022B   20216.37517611 -.00000230  00000-0  00000+0 0  9995
2 37606   0.0157  90.5009 0001779  47.7588  37.1987  1.00272866 33758
CHINASAT 10 (ZX 10)     
1 37677U 11026A   20216.14282023 -.00000370  00000-0  00000+0 0  9993
2 37677   0.0212 234.4694 0004667 288.5311 311.0826  1.00272614 33460
TIANLIAN 1-02           
1 37737U 11032A   20216.27602762 -.00000037  00000-0  00000+0 0  9997
2 37737   2.8278  75.2039 0015371  90.5156  56.8985  1.00269734 33228
GSAT-12                 
1 37746U 11034A   20215.74354966 -.00000184  00000-0  00000-0 0  9994
2 37746   0.0177  99.8095 0010889   3.9166 198.7459  1.00271655 21996
SES-3                   
1 37748U 11035A   20216.05000161 -.00000120  00000-0  00000+0 0  9996
2 37748   0.0202 357.5636 0003069 131.6332  97.8763  1.00272266 33199
KAZSAT-2                
1 37749U 11035B   20216.73385973 -.00000215  00000-0  00000+0 0  9994
2 37749   0.0422 147.2420 0002686  28.9794 127.1936  1.00270217 33073
BEIDOU 9                
1 37763U 11038A   20216.38348095 -.00000084  00000-0  10000-3 0  9997
2 37763  54.4532 184.9471 0073929 225.7284 134.8684  1.00284544 33159
ASTRA 1N                
1 37775U 11041A   20216.32202307  .00000101  00000-0  00000+0 0  9997
2 37775   0.0379  31.9392 0004527  53.5953   1.9099  1.00270659 32907
BSAT-3C (JCSAT-110R)    
1 37776U 11041B   20215.76160586 -.00000369  00000-0  00000-0 0  9995
2 37776   0.0184  96.5385 0000240 305.1878 294.1952  1.00272240 33027
PAKSAT-1R               
1 37779U 11042A   20216.22168191  .00000135  00000-0  00000+0 0  9990
2 37779   0.0507 242.9011 0004266 216.8487 330.2954  1.00271120 32780
CHINASAT 1A (ZX 1A)     
1 37804U 19001A   20215.95282081 -.00000356  00000-0  00000+0 0  9992
2 37804   0.0335 197.9924 0000425 288.6543 298.1702  1.00271549 32578
COSMOS 2473             
1 37806U 11048A   20216.21899813 -.00000129  00000-0  00000+0 0  9992
2 37806   0.1607 101.9565 0003411  26.6659 248.6825  1.00268980 32576
SES-2                   
1 37809U 11049A   20215.55066318 -.00000214  00000-0  00000-0 0  9994
2 37809   0.0611 276.5904 0002984 212.4903 293.7346  1.00271559 32496
ARABSAT-5C              
1 37810U 11049B   20216.28983719  .00000105  00000-0  00000+0 0  9997
2 37810   0.0591  13.1712 0004886 140.2288 283.2432  1.00271374 32411
EUTELSAT 7 WEST A       
1 37816U 11051A   20216.43521881 -.00000079  00000-0  00000+0 0  9992
2 37816   0.0624  32.8571 0007194 121.2594 307.7004  1.00272140 32474
QUETZSAT 1              
1 37826U 11054A   20215.48087444 -.00000260  00000-0  00000-0 0  9995
2 37826   0.0156  60.6185 0003306  72.6630 274.3388  1.00272744 32593
INTELSAT 18 (IS-18)     
1 37834U 11056A   20215.73999861  .00000034  00000-0  00000-0 0  9997
2 37834   0.0162  70.3902 0002395  62.9884 264.7754  1.00272409 32356
EUTELSAT 16A            
1 37836U 11057A   20215.71484120  .00000085  00000-0  00000-0 0  9991
2 37836   0.0651  13.7669 0004767 114.6653  96.6510  1.00270652 32288
VIASAT-1                
1 37843U 11059A   20216.51095078 -.00000042  00000-0  00000+0 0  9993
2 37843   0.0263  92.5525 0002742  40.5258 248.3035  1.00270794 32780
ASIASAT 7               
1 37933U 11069A   20215.74022860 -.00000353  00000-0  00000-0 0  9993
2 37933   0.0183 112.0305 0001976 348.5496 223.1647  1.00273781 23350
BEIDOU 10               
1 37948U 11073A   20215.69424509 -.00000150  00000-0  10000-3 0  9993
2 37948  51.4983 297.3834 0070196 213.4326 146.1768  1.00285575 31902
LUCH 5A                 
1 37951U 11074B   20215.97876079 -.00000065  00000-0  00000-0 0  9993
2 37951   3.3665 113.6051 0005007   3.8631 354.0638  1.00276003 31686
NIGCOMSAT 1R            
1 38014U 11077A   20216.07896394  .00000126  00000-0  00000+0 0  9997
2 38014   0.0297 124.0513 0002933   2.0439 256.9244  1.00270321 31537
FENGYUN 2F              
1 38049U 12002A   20216.52349407 -.00000376  00000-0  00000+0 0  9990
2 38049   2.1694  83.5037 0000952  49.4769 119.8184  1.00284182 31393
WGS F4 (USA 233)        
1 38070U 12003A   20215.72923514 -.00000234  00000-0  00000-0 0  9997
2 38070   0.0129  98.5587 0000638  45.9731 158.1707  1.00271837 31215
SES-4                   
1 38087U 12007A   20216.35327990 -.00000187  00000-0  00000+0 0  9991
2 38087   0.0127  36.0369 0002374  99.3017 282.2277  1.00271948 30993
BEIDOU 11               
1 38091U 12008A   20215.94146737  .00000036  00000-0  00000-0 0  9992
2 38091   1.5745  68.1545 0003090 301.0294 340.5268  1.00277080 30977
MUOS-1                  
1 38093U 12009A   20216.62498931 -.00000144  00000-0  00000+0 0  9997
2 38093   2.5293   9.0206 0052675   4.0080  64.6356  1.00271724 30962
INTELSAT 22 (IS-22)     
1 38098U 12011A   20216.44383080 -.00000077  00000-0  00000+0 0  9998
2 38098   0.0092 278.7706 0002243 231.9618  33.6171  1.00270933 30558
APSTAR 7                
1 38107U 12013A   20215.87047009 -.00000120  00000-0  00000-0 0  9995
2 38107   0.0130  99.7518 0002606  28.2729 213.7364  1.00272002 30663
YAHSAT 1B               
1 38245U 12016A   20216.30535762  .00000108  00000-0  00000+0 0  9992
2 38245   0.0171  99.8064 0002373  13.4574 356.5862  1.00270082 30422
AEHF-2 (USA 235)        
1 38254U 12019A   20216.48772736 -.00000294  00000-0  00000+0 0  9995
2 38254   2.0765  48.4355 0006907  67.5935 304.5458  1.00271300 30185
JCSAT-13                
1 38331U 12023A   20216.38241669 -.00000375  00000-0  00000+0 0  9991
2 38331   0.0270 105.3087 0002483  24.2946  84.4831  1.00268059 30076
VINASAT-2               
1 38332U 12023B   20216.38398694 -.00000347  00000-0  00000+0 0  9992
2 38332   0.0407 274.5344 0002298 219.7772  88.1678  1.00272091 30112
NIMIQ 6                 
1 38342U 12026A   20216.48619255 -.00000192  00000-0  00000+0 0  9994
2 38342   0.0188 306.8921 0002990 181.4621 268.0780  1.00268712 30103
CHINASAT 2A (ZX 2A)     
1 38352U 12028A   20215.76716003 -.00000310  00000-0  00000-0 0  9999
2 38352   0.0111 209.2229 0000982 194.5556 282.4438  1.00266589 30131
INTELSAT 19 (IS-19)     
1 38356U 12030A   20216.10365171 -.00000075  00000-0  00000+0 0  9998
2 38356   0.0152  58.1210 0003107  71.7684  25.5690  1.00269477 30013
ECHOSTAR 17             
1 38551U 12035A   20216.04921649 -.00000094  00000-0  00000+0 0  9992
2 38551   0.0166  67.8018 0002052  66.5308  88.3516  1.00272420 29622
METEOSAT-10 (MSG-3)     
1 38552U 12035B   20216.28774352  .00000045  00000-0  00000+0 0  9991
2 38552   1.3722 342.4819 0001995 130.0822 312.8744  1.00267217 29726
SES-5                   
1 38652U 12036A   20216.42410427  .00000015  00000-0  00000+0 0  9996
2 38652   0.0454  92.4363 0002274  30.4599 347.1923  1.00270155 29574
TIANLIAN 1-03           
1 38730U 12040A   20215.93101182  .00000107  00000-0  00000-0 0  9991
2 38730   0.3334 105.2564 0003704 309.1890 253.1041  1.00277194 29483
INTELSAT 20 (IS-20)     
1 38740U 12043A   20216.08411087 -.00000043  00000-0  00000+0 0  9999
2 38740   0.0161 102.5165 0000806 103.3364 205.0416  1.00271402 29338
HYLAS 2                 
1 38741U 12043B   20216.07966074  .00000136  00000-0  00000+0 0  9992
2 38741   0.0194 294.1827 0002067 195.6236 242.0078  1.00272169 29359
INTELSAT 21 (IS-21)     
1 38749U 12045A   20216.44314566 -.00000303  00000-0  00000+0 0  9993
2 38749   0.0019 352.6651 0002416 139.4522 281.8777  1.00270470 29147
ASTRA 2F                
1 38778U 12051A   20216.29149466  .00000131  00000-0  00000+0 0  9998
2 38778   0.0958 250.1510 0002876 292.2033 263.0701  1.00270427 28793
GSAT-10                 
1 38779U 12051B   20215.74354966 -.00000183  00000-0  00000-0 0  9990
2 38779   0.0801 272.7570 0000985 160.7482 228.9477  1.00270504 28610
INTELSAT 23 (IS-23)     
1 38867U 12057A   20215.48567241 -.00000303  00000-0  00000-0 0  9991
2 38867   0.0129 100.9886 0002067  28.5149 303.8688  1.00270763 28497
BEIDOU 16               
1 38953U 12059A   20216.53022193 -.00000194  00000-0  00000+0 0  9995
2 38953   1.2161  84.0567 0006592 274.7257 228.6154  1.00274574 28555
LUCH 5B                 
1 38977U 12061A   20215.92368400 -.00000154  00000-0  00000-0 0  9997
2 38977   5.8421  67.3520 0003323  46.8032 153.9663  1.00271130 28674
